{
    "links": {
        "self": "http://www.neowsapp.com/rest/v1/neo/3843877?api_key=iIulBulltgU6a56xZRHN4H3l9WmuAYTsLGpBGhQ2"
    },
    "id": "3843877",
    "neo_reference_id": "3843877",
    "name": "(2019 SF)",
    "designation": "2019 SF",
    "nasa_jpl_url": "http://ssd.jpl.nasa.gov/sbdb.cgi?sstr=3843877",
    "absolute_magnitude_h": 26.1,
    "estimated_diameter": {
        "kilometers": {
            "estimated_diameter_min": 0.0160160338,
            "estimated_diameter_max": 0.0358129403
        },
        "meters": {
            "estimated_diameter_min": 16.0160337979,
            "estimated_diameter_max": 35.8129403019
        },
        "miles": {
            "estimated_diameter_min": 0.0099518989,
            "estimated_diameter_max": 0.0222531225
        },
        "feet": {
            "estimated_diameter_min": 52.5460443254,
            "estimated_diameter_max": 117.4965270602
        }
    },
    "is_potentially_hazardous_asteroid": false,
    "close_approach_data": [
        {
            "close_approach_date": "2019-09-11",
            "close_approach_date_full": "2019-Sep-11 23:56",
            "epoch_date_close_approach": 1568246160000,
            "relative_velocity": {
                "kilometers_per_second": "12.8337817122",
                "kilometers_per_hour": "46201.6141640215",
                "miles_per_hour": "28707.8863120833"
            },
            "miss_distance": {
                "astronomical": "0.0177249945",
                "lunar": "6.8950228605",
                "kilometers": "2651621.422961715",
                "miles": "1647641.150093067"
            },
            "orbiting_body": "Earth"
        }
    ],
    "orbital_data": {
        "orbit_id": "1",
        "orbit_determination_date": "2019-09-19 10:12:03",
        "first_observation_date": "2019-09-18",
        "last_observation_date": "2019-09-19",
        "data_arc_in_days": 1,
        "observations_used": 9,
        "orbit_uncertainty": "9",
        "minimum_orbit_intersection": ".0163993",
        "jupiter_tisserand_invariant": "3.940",
        "epoch_osculation": "2458744.5",
        "eccentricity": ".5138579252168156",
        "semi_major_axis": "1.763156998728476",
        "inclination": "8.125770020773624",
        "ascending_node_longitude": "343.3249978893294",
        "orbital_period": "855.1354387288252",
        "perihelion_distance": ".8571448015303538",
        "perihelion_argument": "311.4998393935317",
        "aphelion_distance": "2.669169195926599",
        "perihelion_time": "2458699.018611939732",
        "mean_anomaly": "19.14702509117818",
        "mean_motion": ".420985944092256",
        "equinox": "J2000",
        "orbit_class": {
            "orbit_class_type": "APO",
            "orbit_class_description": "Near-Earth asteroid orbits which cross the Earth’s orbit similar to that of 1862 Apollo",
            "orbit_class_range": "a (semi-major axis) > 1.0 AU; q (perihelion) < 1.017 AU"
        }
    },
    "is_sentry_object": false
}